[{"OBJECT_NAME":"OBJECT H","OBJECT_ID":"2023-091H","EPOCH":"2026-03-09T22:34:46.487712","MEAN_MOTION":15.26380881,"ECCENTRICITY":0.00117854,"INCLINATION":97.5166,"RA_OF_ASC_NODE":131.4381,"ARG_OF_PERICENTER":104.1062,"MEAN_ANOMALY":256.1487,"EPHEMERIS_TYPE":0,"CLASSIFICATION_TYPE":"U","NORAD_CAT_ID":57173,"ELEMENT_SET_NO":999,"REV_AT_EPOCH":14915,"BSTAR":0.00056321781,"MEAN_MOTION_DOT":0.00014617,"MEAN_MOTION_DDOT":0},{"OBJECT_NAME":"STARLINK-35435","OBJECT_ID":"2025-262J","EPOCH":"2026-03-09T23:13:11.247456","MEAN_MOTION":15.27584024,"ECCENTRICITY":0.00013138,"INCLINATION":42.9988,"RA_OF_ASC_NODE":294.189,"ARG_OF_PERICENTER":289.2331,"MEAN_ANOMALY":70.8379,"EPHEMERIS_TYPE":0,"CLASSIFICATION_TYPE":"U","NORAD_CAT_ID":66464,"ELEMENT_SET_NO":999,"REV_AT_EPOCH":1895,"BSTAR":0.0010915959,"MEAN_MOTION_DOT":0.00029902,"MEAN_MOTION_DDOT":0}]
